OBJECT_NAME,OBJECT_ID,EPOCH,MEAN_MOTION,ECCENTRICITY,INCLINATION,RA_OF_ASC_NODE,ARG_OF_PERICENTER,MEAN_ANOMALY,EPHEMERIS_TYPE,CLASSIFICATION_TYPE,NORAD_CAT_ID,ELEMENT_SET_NO,REV_AT_EPOCH,BSTAR,MEAN_MOTION_DOT,MEAN_MOTION_DDOT
JILIN-1 GAOFEN 3A,2019-032C,2026-07-01T22:39:52.200288,15.32953823,.00054382,44.9745,275.7016,13.8885,346.2149,0,U,44312,999,39010,.42195426E-3,.13412E-3,0
WT 1B,2019-032G,2026-07-01T21:58:38.728128,15.27476889,.00097263,44.9718,340.5301,322.3934,37.6268,0,U,44316,999,38933,.43948321E-3,.11775E-3,0
PROX-1,2019-036A,2026-07-01T20:23:39.555168,14.90976044,.00053524,23.9963,16.2809,206.2161,153.8068,0,U,44339,999,37566,.16104136E-2,.16611E-3,0
NPSAT1,2019-036B,2026-07-01T22:29:13.488288,14.74713730,.00073138,23.9981,121.6818,20.7672,339.3121,0,U,44340,999,37467,.99370043E-3,.7038E-4,0
FORMOSAT 7-3,2019-036E,2026-07-01T22:06:25.466976,15.09904501,.00010394,23.9994,77.1234,92.1380,267.9242,0,U,44343,999,38547,.31066532E-3,.5516E-4,0
FORMOSAT 7-1,2019-036L,2026-07-01T15:34:35.258016,14.96568366,.00008332,23.9988,294.8959,19.0470,341.0062,0,U,44349,999,38682,.2136417E-3,.2794E-4,0
FORMOSAT 7-4,2019-036M,2026-07-01T19:19:05.374848,14.96561791,.00012367,23.9999,355.9488,17.9596,342.0948,0,U,44350,999,38626,.23258926E-3,.3014E-4,0
FORMOSAT 7-2,2019-036N,2026-07-01T21:27:17.073504,14.96559900,.00006891,23.9995,49.6622,26.8082,333.2455,0,U,44351,999,38579,.23546775E-3,.3048E-4,0
FORMOSAT 7-6,2019-036Q,2026-07-01T19:50:44.237760,14.96569542,.00006249,23.9968,230.9313,272.0382,88.0047,0,U,44353,999,38401,.1955462E-3,.2583E-4,0
FORMOSAT 7-5,2019-036V,2026-07-01T06:29:52.516608,14.96560765,.0000354,23.9968,173.4291,50.6328,309.4204,0,U,44358,999,38446,.13031E-3,.1822E-4,0
METEOR-M2 2,2019-038A,2026-07-01T23:54:44.252064,14.24370098,.00014214,98.9146,170.5004,26.5437,333.5813,0,U,44387,999,36340,.51374192E-4,.73E-6,0
GLOBAL-4,2019-054E,2026-07-01T07:28:31.027008,15.65673533,.00039755,45.0042,154.8235,80.3502,279.7845,0,U,44499,999,38257,.62666288E-3,.64976E-3,0
ZY-1 02D,2019-059A,2026-07-01T22:00:06.069888,14.35264627,.0003782,98.6722,244.4077,346.9311,13.1776,0,U,44528,999,35645,.22834449E-4,.2E-6,0
TAURUS-1 (JINNIUZUO 1),2019-059C,2026-07-01T23:48:01.920960,14.72251691,.0007372,98.6420,348.7398,262.0880,97.9489,0,U,44530,999,36082,.13685714E-2,.8596E-4,0
ZHUHAI-1 03B,2019-060C,2026-07-01T23:44:07.649088,15.54927058,.00076151,97.5540,341.5625,256.5556,103.4850,0,U,44536,999,37862,.5387454E-3,.36069E-3,0
ZHUHAI-1 03D,2019-060E,2026-07-01T22:35:53.305152,15.50611173,.00068276,97.5398,333.5051,241.1112,118.9454,0,U,44538,999,37836,.60355539E-3,.34594E-3,0
ZHUHAI-1 03E,2019-060F,2026-07-01T23:32:39.770304,15.41540117,.00047707,97.5630,333.4466,337.0732,23.0300,0,U,44539,999,37804,.48624704E-3,.20358E-3,0
GAOFEN-7,2019-072A,2026-07-01T22:22:49.476576,15.21370724,.00172389,97.2419,243.8425,350.6014,9.4897,0,U,44703,999,36988,.20088924E-3,.4453E-4,0
JILIN-1 GAOFEN 2A,2019-075A,2026-07-01T21:21:15.456672,15.39706534,.00064496,97.4969,267.0263,42.4903,317.6841,0,U,44777,999,36714,.42193723E-3,.16614E-3,0
NINGXIA-1 1,2019-076A,2026-07-01T22:21:58.052160,14.02040268,.0011493,45.0051,113.9593,231.4857,128.4947,0,U,44779,999,33992,.43684725E-4,-.62E-6,0
NINGXIA-1 5,2019-076E,2026-07-01T22:40:22.789344,14.02088164,.00110808,45.0045,113.2375,222.6275,137.3700,0,U,44783,999,33984,.7071158E-4,-.21E-6,0
KL-ALPHA A,2019-077A,2026-07-01T22:50:19.207680,13.56044549,.00132449,88.9238,220.9503,69.8437,290.4141,0,U,44785,999,32773,.10523741E-3,.86E-6,0
CARTOSAT-3,2019-081A,2026-07-01T21:51:31.881888,15.19241525,.00133751,97.4299,244.5408,101.9262,258.3473,0,U,44804,999,36570,.21742787E-3,.4523E-4,0
JILIN-1 GAOFEN 2B,2019-086A,2026-07-01T21:15:37.083168,15.20869963,.0012459,97.4878,254.7855,266.8625,93.1185,0,U,44836,999,36272,.33253598E-3,.7292E-4,0
TIANQIN 1 (CAS-6),2019-093A,2026-07-01T22:38:19.093920,14.95503335,.00113745,97.7814,266.6777,12.0779,348.0713,0,U,44879,999,35425,.13387622E-3,.1426E-4,0
ETRSS-1,2019-093B,2026-07-01T22:41:56.218848,14.95944323,.0011533,97.7831,267.1523,11.9964,348.1530,0,U,44880,999,35426,.16033069E-3,.1739E-4,0
TIANYAN 01,2019-093C,2026-07-01T22:05:50.482752,14.86541075,.00146573,97.7534,254.7935,43.1242,317.1119,0,U,44881,999,35360,.33732624E-4,.246E-5,0
TIANYAN 02,2019-093D,2026-07-01T22:37:57.811872,15.05399652,.00128583,97.7946,277.8755,337.1435,22.9217,0,U,44882,999,35483,.59282367E-3,.8458E-4,0
