JILIN-1 GAOFEN 3A       
1 44312U 19032C   26182.94435417  .00013412  00000+0  42195-3 0  9999
2 44312  44.9745 275.7016 0005438  13.8885 346.2149 15.32953823390103
WT 1B                   
1 44316U 19032G   26182.91572602  .00011775  00000+0  43948-3 0  9995
2 44316  44.9718 340.5301 0009726 322.3934  37.6268 15.27476889389334
PROX-1                  
1 44339U 19036A   26182.84976337  .00016611  00000+0  16104-2 0  9996
2 44339  23.9963  16.2809 0005352 206.2161 153.8068 14.90976044375668
NPSAT1                  
1 44340U 19036B   26182.93696167  .00007038  00000+0  99370-3 0  9998
2 44340  23.9981 121.6818 0007313  20.7672 339.3121 14.74713730374670
FORMOSAT 7-3            
1 44343U 19036E   26182.92112809  .00005516  00000+0  31067-3 0  9994
2 44343  23.9994  77.1234 0001039  92.1380 267.9242 15.09904501385479
FORMOSAT 7-1            
1 44349U 19036L   26182.64901919  .00002794  00000+0  21364-3 0  9991
2 44349  23.9988 294.8959 0000833  19.0470 341.0062 14.96568366386823
FORMOSAT 7-4            
1 44350U 19036M   26182.80492332  .00003014  00000+0  23259-3 0  9996
2 44350  23.9999 355.9488 0001236  17.9596 342.0948 14.96561791386264
FORMOSAT 7-2            
1 44351U 19036N   26182.89394761  .00003048  00000+0  23547-3 0  9990
2 44351  23.9995  49.6622 0000689  26.8082 333.2455 14.96559900385799
FORMOSAT 7-6            
1 44353U 19036Q   26182.82690090  .00002583  00000+0  19555-3 0  9996
2 44353  23.9968 230.9313 0000624 272.0382  88.0047 14.96569542384019
FORMOSAT 7-5            
1 44358U 19036V   26182.27074672  .00001822  00000+0  13031-3 0  9990
2 44358  23.9968 173.4291 0000354  50.6328 309.4204 14.96560765384462
METEOR-M2 2             
1 44387U 19038A   26182.99634551  .00000073  00000+0  51374-4 0  9991
2 44387  98.9146 170.5004 0001421  26.5437 333.5813 14.24370098363407
GLOBAL-4                
1 44499U 19054E   26182.31147022  .00064976  00000+0  62666-3 0  9998
2 44499  45.0042 154.8235 0003975  80.3502 279.7845 15.65673533382578
ZY-1 02D                
1 44528U 19059A   26182.91673692  .00000020  00000+0  22834-4 0  9993
2 44528  98.6722 244.4077 0003782 346.9311  13.1776 14.35264627356452
TAURUS-1 (JINNIUZUO 1)  
1 44530U 19059C   26182.99168890  .00008596  00000+0  13686-2 0  9992
2 44530  98.6420 348.7398 0007372 262.0880  97.9489 14.72251691360827
ZHUHAI-1 03B            
1 44536U 19060C   26182.98897742  .00036069  00000+0  53875-3 0  9995
2 44536  97.5540 341.5625 0007615 256.5556 103.4850 15.54927058378626
ZHUHAI-1 03D            
1 44538U 19060E   26182.94158918  .00034594  00000+0  60356-3 0  9991
2 44538  97.5398 333.5051 0006827 241.1112 118.9454 15.50611173378361
ZHUHAI-1 03E            
1 44539U 19060F   26182.98101586  .00020358  00000+0  48625-3 0  9993
2 44539  97.5630 333.4466 0004770 337.0732  23.0300 15.41540117378048
GAOFEN-7                
1 44703U 19072A   26182.93251709  .00004453  00000+0  20089-3 0  9999
2 44703  97.2419 243.8425 0017238 350.6014   9.4897 15.21370724369883
JILIN-1 GAOFEN 2A       
1 44777U 19075A   26182.88976223  .00016614  00000+0  42194-3 0  9995
2 44777  97.4969 267.0263 0006449  42.4903 317.6841 15.39706534367140
NINGXIA-1 1             
1 44779U 19076A   26182.93192190 -.00000062  00000+0  43685-4 0  9995
2 44779  45.0051 113.9593 0011493 231.4857 128.4947 14.02040268339925
NINGXIA-1 5             
1 44783U 19076E   26182.94470821 -.00000021  00000+0  70712-4 0  9997
2 44783  45.0045 113.2375 0011080 222.6275 137.3700 14.02088164339846
KL-ALPHA A              
1 44785U 19077A   26182.95161120  .00000086  00000+0  10524-3 0  9994
2 44785  88.9238 220.9503 0013244  69.8437 290.4141 13.56044549327734
CARTOSAT-3              
1 44804U 19081A   26182.91078567  .00004523  00000+0  21743-3 0  9994
2 44804  97.4299 244.5408 0013375 101.9262 258.3473 15.19241525365707
JILIN-1 GAOFEN 2B       
1 44836U 19086A   26182.88584587  .00007292  00000+0  33254-3 0  9990
2 44836  97.4878 254.7855 0012459 266.8625  93.1185 15.20869963362728
TIANQIN 1 (CAS-6)       
1 44879U 19093A   26182.94327655  .00001426  00000+0  13388-3 0  9992
2 44879  97.7814 266.6777 0011374  12.0779 348.0713 14.95503335354256
ETRSS-1                 
1 44880U 19093B   26182.94578957  .00001739  00000+0  16033-3 0  9994
2 44880  97.7831 267.1523 0011533  11.9964 348.1530 14.95944323354268
TIANYAN 01              
1 44881U 19093C   26182.92072318  .00000246  00000+0  33733-4 0  9992
2 44881  97.7534 254.7935 0014657  43.1242 317.1119 14.86541075353607
TIANYAN 02              
1 44882U 19093D   26182.94303023  .00008458  00000+0  59282-3 0  9994
2 44882  97.7946 277.8755 0012858 337.1435  22.9217 15.05399652354832
